CCSDS_OMM_VERS = 2.0
CREATION_DATE  = 
ORIGINATOR     = 

OBJECT_NAME    = SOYUZ-MS 28
OBJECT_ID      = 2025-275A
CENTER_NAME    = EARTH
REF_FRAME      = TEME
TIME_SYSTEM    = UTC
MEAN_ELEMENT_THEORY = SGP/SGP4

EPOCH          = 2025-12-26T20:34:16.427712
MEAN_MOTION    = 15.49855582
ECCENTRICITY   = .000323
INCLINATION    = 51.6319
RA_OF_ASC_NODE = 72.5609
ARG_OF_PERICENTER = 307.0606
MEAN_ANOMALY   = 53.0087

EPHEMERIS_TYPE = 0
CLASSIFICATION_TYPE = U
NORAD_CAT_ID   = 66664
ELEMENT_SET_NO = 999
REV_AT_EPOCH   = 463
BSTAR          = .27092E-3
MEAN_MOTION_DOT = .14958E-3
MEAN_MOTION_DDOT = 0

CCSDS_OMM_VERS = 2.0
CREATION_DATE  = 
ORIGINATOR     = 

OBJECT_NAME    = 1998-067XS
OBJECT_ID      = 1998-067XS
CENTER_NAME    = EARTH
REF_FRAME      = TEME
TIME_SYSTEM    = UTC
MEAN_ELEMENT_THEORY = SGP/SGP4

EPOCH          = 2025-12-26T15:31:52.021632
MEAN_MOTION    = 15.51325960
ECCENTRICITY   = .00026732
INCLINATION    = 51.6319
RA_OF_ASC_NODE = 73.4106
ARG_OF_PERICENTER = 274.6449
MEAN_ANOMALY   = 85.4236

EPHEMERIS_TYPE = 0
CLASSIFICATION_TYPE = U
NORAD_CAT_ID   = 66906
ELEMENT_SET_NO = 999
REV_AT_EPOCH   = 377
BSTAR          = .48784884E-3
MEAN_MOTION_DOT = .2883E-3
MEAN_MOTION_DDOT = 0

CCSDS_OMM_VERS = 2.0
CREATION_DATE  = 
ORIGINATOR     = 

OBJECT_NAME    = 1998-067XT
OBJECT_ID      = 1998-067XT
CENTER_NAME    = EARTH
REF_FRAME      = TEME
TIME_SYSTEM    = UTC
MEAN_ELEMENT_THEORY = SGP/SGP4

EPOCH          = 2025-12-26T12:05:04.890048
MEAN_MOTION    = 15.53165234
ECCENTRICITY   = .0003816
INCLINATION    = 51.6314
RA_OF_ASC_NODE = 73.9516
ARG_OF_PERICENTER = 309.8325
MEAN_ANOMALY   = 50.2329

EPHEMERIS_TYPE = 0
CLASSIFICATION_TYPE = U
NORAD_CAT_ID   = 66907
ELEMENT_SET_NO = 999
REV_AT_EPOCH   = 375
BSTAR          = .96732E-3
MEAN_MOTION_DOT = .61851E-3
MEAN_MOTION_DDOT = 0

CCSDS_OMM_VERS = 2.0
CREATION_DATE  = 
ORIGINATOR     = 

OBJECT_NAME    = 1998-067XU
OBJECT_ID      = 1998-067XU
CENTER_NAME    = EARTH
REF_FRAME      = TEME
TIME_SYSTEM    = UTC
MEAN_ELEMENT_THEORY = SGP/SGP4

EPOCH          = 2025-12-26T18:14:01.549824
MEAN_MOTION    = 15.53257933
ECCENTRICITY   = .00038698
INCLINATION    = 51.6313
RA_OF_ASC_NODE = 72.6614
ARG_OF_PERICENTER = 309.5614
MEAN_ANOMALY   = 50.5034

EPHEMERIS_TYPE = 0
CLASSIFICATION_TYPE = U
NORAD_CAT_ID   = 66908
ELEMENT_SET_NO = 999
REV_AT_EPOCH   = 379
BSTAR          = .95802228E-3
MEAN_MOTION_DOT = .61456E-3
MEAN_MOTION_DDOT = 0

CCSDS_OMM_VERS = 2.0
CREATION_DATE  = 
ORIGINATOR     = 

OBJECT_NAME    = SILVERSAT
OBJECT_ID      = 1998-067XV
CENTER_NAME    = EARTH
REF_FRAME      = TEME
TIME_SYSTEM    = UTC
MEAN_ELEMENT_THEORY = SGP/SGP4

EPOCH          = 2025-12-26T12:00:46.911744
MEAN_MOTION    = 15.53512588
ECCENTRICITY   = .0003773
INCLINATION    = 51.6312
RA_OF_ASC_NODE = 73.9315
ARG_OF_PERICENTER = 313.4073
MEAN_ANOMALY   = 46.6603

EPHEMERIS_TYPE = 0
CLASSIFICATION_TYPE = U
NORAD_CAT_ID   = 66909
ELEMENT_SET_NO = 999
REV_AT_EPOCH   = 375
BSTAR          = .10737E-2
MEAN_MOTION_DOT = .69652E-3
MEAN_MOTION_DDOT = 0

CCSDS_OMM_VERS = 2.0
CREATION_DATE  = 
ORIGINATOR     = 

OBJECT_NAME    = 1998-067XW
OBJECT_ID      = 1998-067XW
CENTER_NAME    = EARTH
REF_FRAME      = TEME
TIME_SYSTEM    = UTC
MEAN_ELEMENT_THEORY = SGP/SGP4

EPOCH          = 2025-12-26T15:03:47.074752
MEAN_MOTION    = 15.53436341
ECCENTRICITY   = .0003732
INCLINATION    = 51.6301
RA_OF_ASC_NODE = 73.2786
ARG_OF_PERICENTER = 284.7259
MEAN_ANOMALY   = 75.3317

EPHEMERIS_TYPE = 0
CLASSIFICATION_TYPE = U
NORAD_CAT_ID   = 66910
ELEMENT_SET_NO = 999
REV_AT_EPOCH   = 377
BSTAR          = .11547E-2
MEAN_MOTION_DOT = .74776E-3
MEAN_MOTION_DDOT = 0

CCSDS_OMM_VERS = 2.0
CREATION_DATE  = 
ORIGINATOR     = 

OBJECT_NAME    = 1998-067XX
OBJECT_ID      = 1998-067XX
CENTER_NAME    = EARTH
REF_FRAME      = TEME
TIME_SYSTEM    = UTC
MEAN_ELEMENT_THEORY = SGP/SGP4

EPOCH          = 2025-12-26T11:52:19.081056
MEAN_MOTION    = 15.53969140
ECCENTRICITY   = .0003493
INCLINATION    = 51.6301
RA_OF_ASC_NODE = 73.8915
ARG_OF_PERICENTER = 292.7420
MEAN_ANOMALY   = 67.3201

EPHEMERIS_TYPE = 0
CLASSIFICATION_TYPE = U
NORAD_CAT_ID   = 66911
ELEMENT_SET_NO = 999
REV_AT_EPOCH   = 374
BSTAR          = .11709E-2
MEAN_MOTION_DOT = .77346E-3
MEAN_MOTION_DDOT = 0

CCSDS_OMM_VERS = 2.0
CREATION_DATE  = 
ORIGINATOR     = 

OBJECT_NAME    = 1998-067XY
OBJECT_ID      = 1998-067XY
CENTER_NAME    = EARTH
REF_FRAME      = TEME
TIME_SYSTEM    = UTC
MEAN_ELEMENT_THEORY = SGP/SGP4

EPOCH          = 2025-12-26T12:12:45.084960
MEAN_MOTION    = 15.52489248
ECCENTRICITY   = .0003823
INCLINATION    = 51.6314
RA_OF_ASC_NODE = 73.9869
ARG_OF_PERICENTER = 301.1826
MEAN_ANOMALY   = 58.8789

EPHEMERIS_TYPE = 0
CLASSIFICATION_TYPE = U
NORAD_CAT_ID   = 66912
ELEMENT_SET_NO = 999
REV_AT_EPOCH   = 374
BSTAR          = .78444E-3
MEAN_MOTION_DOT = .48771E-3
MEAN_MOTION_DDOT = 0

